*******************************************************************************
Ephemeris / WWW_USER Tue Mar 27 22:41:02 2018 Pasadena, USA      / Horizons    
*******************************************************************************
Target body name: XMM-Newton (spacecraft) (-125989) {source: xmm}
Center body name: Earth-Moon Barycenter (3)       {source: DE431mx}
Center-site name: BODY CENTER
*******************************************************************************
Start time      : A.D. 2000-Jan-01 00:00:00.0000 TDB
Stop  time      : A.D. 2001-Jan-01 00:00:00.0000 TDB
Step-size       : 7200 minutes
*******************************************************************************
Center geodetic : 0.00000000,0.00000000,0.0000000 {E-lon(deg),Lat(deg),Alt(km)}
Center cylindric: 0.00000000,0.00000000,0.0000000 {E-lon(deg),Dxy(km),Dz(km)}
Center radii    : (undefined)                                                  
Output units    : AU-D                                                         
Output type     : GEOMETRIC cartesian states
Output format   : 2 (position and velocity)
Reference frame : ICRF/J2000.0                                                 
Coordinate systm: Ecliptic and Mean Equinox of Reference Epoch                 
*******************************************************************************
JDTDB
   X     Y     Z
   VX    VY    VZ
*******************************************************************************
$$SOE
2451544.500000000 = A.D. 2000-Jan-01 00:00:00.0000 TDB 
  -3.026711397991530E-04  1.935908051259348E-04 -4.919712838309417E-04
  -3.393596511903111E-05 -6.400430359729708E-04  6.983190351043980E-04
2451549.500000000 = A.D. 2000-Jan-06 00:00:00.0000 TDB 
  -7.902399761875612E-06  5.016406085729639E-04 -5.304875129387614E-04
  -4.711151186290237E-04  1.195666115462177E-04 -5.458605271082518E-04
2451554.500000000 = A.D. 2000-Jan-11 00:00:00.0000 TDB 
  -3.583022153523775E-04  1.732088369837213E-04 -4.683072721378737E-04
   4.299545003667526E-06 -6.677933364343027E-04  7.493298938596007E-04
2451559.500000000 = A.D. 2000-Jan-16 00:00:00.0000 TDB 
  -3.942687289604464E-05  4.496026209512775E-04 -5.432202864588905E-04
  -4.586720387894360E-04  8.405683736170298E-05 -5.066800700474251E-04
2451564.500000000 = A.D. 2000-Jan-21 00:00:00.0000 TDB 
  -3.152933117031292E-04  1.143714642227873E-04 -4.475405003911161E-04
   5.491828019006611E-05 -6.725788634159639E-04  8.098239171026731E-04
2451569.500000000 = A.D. 2000-Jan-26 00:00:00.0000 TDB 
  -6.354538260918617E-07  4.747660874206621E-04 -5.654344381783477E-04
  -4.647589253467616E-04  6.755534812726383E-05 -4.641921752109856E-04
2451574.500000000 = A.D. 2000-Jan-31 00:00:00.0000 TDB 
  -3.164090078546271E-04  1.551060822291496E-04 -4.227876280295751E-04
   8.992218968085648E-05 -6.931701722487541E-04  8.768876264519206E-04
2451579.500000000 = A.D. 2000-Feb-05 00:00:00.0000 TDB 
  -6.524928277766755E-05  4.951997947347975E-04 -5.759294246884345E-04
  -4.688173147214119E-04  3.129708878461418E-05 -4.269607854878148E-04
2451584.500000000 = A.D. 2000-Feb-10 00:00:00.0000 TDB 
  -3.596586291146286E-04  1.022682207602099E-04 -3.906007143689108E-04
   1.487702889476066E-04 -7.209305905495000E-04  9.332343271200933E-04
2451589.500000000 = A.D. 2000-Feb-15 00:00:00.0000 TDB 
  -5.955454379172224E-05  4.407989959008995E-04 -5.850804216271707E-04
  -4.557875861823689E-04  1.053818574194210E-05 -3.954603437222040E-04
2451594.500000000 = A.D. 2000-Feb-20 00:00:00.0000 TDB 
  -2.979658127471317E-04  7.807692749706007E-05 -3.697730964255317E-04
   2.018712547312704E-04 -7.184206675544940E-04  1.002659236169443E-03
2451599.500000000 = A.D. 2000-Feb-25 00:00:00.0000 TDB 
  -4.458725423988743E-05  4.885629502974325E-04 -6.036409935199753E-04
  -4.678027190920227E-04 -1.277040847423909E-05 -3.528958535852787E-04
2451604.500000000 = A.D. 2000-Mar-01 00:00:00.0000 TDB 
  -3.257146506076385E-04  1.040743270525531E-04 -3.415038643291225E-04
   2.562185935877559E-04 -7.410973999810789E-04  1.077129126874790E-03
2451609.500000000 = A.D. 2000-Mar-06 00:00:00.0000 TDB 
  -1.065333945099499E-04  4.742091570019274E-04 -6.061547006131683E-04
  -4.654481872080118E-04 -3.997096641518872E-05 -3.290563257364516E-04
2451614.500000000 = A.D. 2000-Mar-11 00:00:00.0000 TDB 
  -3.326897076699707E-04  2.992725588339919E-05 -3.094193788439253E-04
   3.367790575117723E-04 -7.585936386562003E-04  1.151506089182936E-03
2451619.500000000 = A.D. 2000-Mar-16 00:00:00.0000 TDB 
  -6.881670747982031E-05  4.382371974241244E-04 -6.154527136979425E-04
  -4.547519229514864E-04 -4.803175994084983E-05 -3.027049979170801E-04
2451624.500000000 = A.D. 2000-Mar-21 00:00:00.0000 TDB 
  -2.748565058219867E-04  4.100243861633545E-05 -2.838320453527940E-04
   4.131860977298627E-04 -7.578452202472295E-04  1.235125690349960E-03
2451629.500000000 = A.D. 2000-Mar-26 00:00:00.0000 TDB 
  -8.319492574832746E-05  4.927089147565055E-04 -6.252779700193431E-04
  -4.650997844752795E-04 -7.004673687994174E-05 -2.739597544447062E-04
2451634.500000000 = A.D. 2000-Mar-31 00:00:00.0000 TDB 
  -3.169803497291702E-04  4.274883480578702E-05 -2.517213075950965E-04
   4.994669562039571E-04 -7.789006914415028E-04  1.318122894266754E-03
2451639.500000000 = A.D. 2000-Apr-05 00:00:00.0000 TDB 
  -1.300925120982689E-04  4.490096627949609E-04 -6.265574430164292E-04
  -4.544502457977305E-04 -9.747194876035851E-05 -2.471483591664705E-04
2451644.500000000 = A.D. 2000-Apr-10 00:00:00.0000 TDB 
  -2.798760270405975E-04 -2.989101959455758E-05 -2.162828243444010E-04
   6.342496561436696E-04 -7.803570773006595E-04  1.423381208052375E-03
2451649.500000000 = A.D. 2000-Apr-15 00:00:00.0000 TDB 
  -8.174863141580703E-05  4.460948873977548E-04 -6.370790727283851E-04
  -4.494946236426536E-04 -1.017082952600396E-04 -2.178277335242277E-04
2451654.500000000 = A.D. 2000-Apr-20 00:00:00.0000 TDB 
  -2.392341265982655E-04  3.713069647838966E-06 -1.822826098115541E-04
   7.802307070837949E-04 -7.716425177038053E-04  1.544145968620295E-03
2451659.500000000 = A.D. 2000-Apr-25 00:00:00.0000 TDB 
  -1.275650028364313E-04  4.855449585960824E-04 -6.426625005252554E-04
  -4.509407360768442E-04 -1.288127641158927E-04 -1.889604508771796E-04
2451664.500000000 = A.D. 2000-Apr-30 00:00:00.0000 TDB 
  -2.710210310793246E-04 -2.857337730031692E-05 -1.379604611134405E-04
   9.888801698455327E-04 -7.655913398901694E-04  1.672949614284164E-03
2451669.500000000 = A.D. 2000-May-05 00:00:00.0000 TDB 
  -1.462130940894046E-04  4.268379292606594E-04 -6.436965958566711E-04
  -4.334069263419422E-04 -1.508580169940100E-04 -1.593909223338761E-04
2451674.500000000 = A.D. 2000-May-10 00:00:00.0000 TDB 
  -1.914159852958389E-04 -7.623829720652144E-05 -9.524592773933287E-05
   1.298281765708278E-03 -7.030999895737907E-04  1.831316164072019E-03
2451679.500000000 = A.D. 2000-May-15 00:00:00.0000 TDB 
  -1.097172372024488E-04  4.558713394701978E-04 -6.538856635155550E-04
  -4.333781173908385E-04 -1.581713112856777E-04 -1.267905051852582E-04
2451684.500000000 = A.D. 2000-May-20 00:00:00.0000 TDB 
  -1.602595711240507E-04 -3.719346655737220E-05 -4.385682817183986E-05
   1.783495132897423E-03 -5.431789485744028E-04  2.022106365330497E-03
2451689.500000000 = A.D. 2000-May-25 00:00:00.0000 TDB 
  -1.759175365035390E-04  4.653856826185994E-04 -6.541640744460572E-04
  -4.271580034054358E-04 -1.858225637367665E-04 -9.437674432799693E-05
2451694.500000000 = A.D. 2000-May-30 00:00:00.0000 TDB 
  -1.432748536069631E-04 -8.843304831598735E-05  1.205538841858620E-05
   2.540186522904685E-03 -1.650238781521708E-04  2.080030579037359E-03
2451699.500000000 = A.D. 2000-Jun-04 00:00:00.0000 TDB 
  -1.603286823640439E-04  4.103979155428081E-04 -6.570189524061694E-04
  -4.060161217311973E-04 -1.976403629587457E-04 -6.311596909824196E-05
2451704.500000000 = A.D. 2000-Jun-09 00:00:00.0000 TDB 
   1.230386966751620E-05 -6.925424735133963E-05  6.160595971072174E-05
   3.815725399558358E-03  1.328685993465097E-03  1.141853269465643E-03
2451709.500000000 = A.D. 2000-Jun-14 00:00:00.0000 TDB 
  -1.540534498396911E-04  4.576646661650338E-04 -6.632560743830714E-04
  -4.101069364090847E-04 -2.119694628094093E-04 -2.709236592880702E-05
2451714.500000000 = A.D. 2000-Jun-19 00:00:00.0000 TDB 
   6.976968615734796E-05  3.022506594919436E-05  5.886154645469273E-05
   2.728177077677430E-03  2.584350300783047E-03 -1.235597019634338E-03
2451719.500000000 = A.D. 2000-Jun-24 00:00:00.0000 TDB 
  -2.199033494691899E-04  4.314715374156469E-04 -6.587127570946752E-04
  -3.970950797051854E-04 -2.390810409190359E-04  8.524483113106496E-06
2451724.500000000 = A.D. 2000-Jun-29 00:00:00.0000 TDB 
   1.208587698052213E-04  4.384084382508183E-05  1.274436236440000E-05
   1.231739702101993E-03  2.172346169960362E-03 -1.838522610094266E-03
2451729.500000000 = A.D. 2000-Jul-04 00:00:00.0000 TDB 
  -1.805287474412761E-04  3.982145090753064E-04 -6.617388703147807E-04
  -3.797608579898797E-04 -2.444370056848646E-04  4.477829333191893E-05
2451734.500000000 = A.D. 2000-Jul-09 00:00:00.0000 TDB 
   1.930082894823954E-04  1.441949266104481E-04 -5.662557921265810E-05
   4.756192649234243E-04  1.684810142166019E-03 -1.774301047121223E-03
2451739.500000000 = A.D. 2000-Jul-14 00:00:00.0000 TDB 
  -2.091234804858441E-04  4.432817714114909E-04 -6.614872748387780E-04
  -3.809898186472749E-04 -2.672914489963983E-04  8.446455852811781E-05
2451744.500000000 = A.D. 2000-Jul-19 00:00:00.0000 TDB 
  -1.928585637467122E-04  2.978395449394376E-04 -4.584294377347354E-04
   1.422529077763673E-04  3.185617293138876E-05  4.724163484354570E-05
2451749.500000000 = A.D. 2000-Jul-24 00:00:00.0000 TDB 
  -2.543134217903757E-04  3.875924347385727E-04 -6.527507283732151E-04
  -3.615747412904764E-04 -2.943384411742417E-04  1.246800748425051E-04
